{"fetched_at":"2026-03-29T16:36:15Z","count":15609,"tles":[{"name":"STARLINK-34074","line1":"1 64099U 25110D   26087.86003168  .00014994  00000+0  51751-3 0  9990","line2":"2 64099  53.1582 298.0017 0001164  62.6189 297.4930 15.30188626 48810","category":"Starlink"}]}